IRIDIUM 39              
1 25042U 97069D   25172.54783971  .00000388  00000+0  96455-4 0  9996
2 25042  86.3925 209.2626 0015644 295.7630  64.1959 14.49223945449595
IRIDIUM 38              
1 25043U 97069E   25172.55239756  .00000256  00000+0  77929-4 0  9994
2 25043  86.3962 231.3188 0004259  89.0303 271.1382 14.38120854446586
IRIDIUM 42              
1 25077U 97077A   25172.14597281  .00000263  00000+0  83137-4 0  9991
2 25077  86.3963 237.6640 0003073  95.7687 264.3860 14.36355003441762
IRIDIUM 44              
1 25078U 97077B   25172.36764143  .00000275  00000+0  80480-4 0  9990
2 25078  86.3969 219.4876 0003326  58.3727 301.7797 14.40245111444300
IRIDIUM 45              
1 25104U 97082A   25172.59129890  .00010936  00000+0  39126-3 0  9990
2 25104  86.3588  45.7558 0114307 316.1602  43.0610 15.22551742452718
IRIDIUM 24              
1 25105U 97082B   25171.98847137  .00000300  00000+0  85180-4 0  9990
2 25105  86.3902  78.6894 0013558  68.8830 291.3818 14.42102081443769
IRIDIUM 51              
1 25262U 98018A   25171.93006228  .00021293  00000+0  47052-3 0  9996
2 25262  86.3837  53.9801 0083668 234.6652 124.6761 15.39974101447607
IRIDIUM 57              
1 25273U 98019B   25172.35319842  .00000259  00000+0  82474-4 0  9992
2 25273  86.3975 143.5169 0002374  87.1998 272.9471 14.35895780425380
